     2              NAVIGATION DATA                         RINEX VERSION / TYPE
CCRINEXN V1.6.0 UX  CDDIS               09-DEC-14 20:23     PGM / RUN BY / DATE 
IGS BROADCAST EPHEMERIS FILE                                COMMENT             
    0.2049D-07 -0.7451D-08 -0.5960D-07  0.1788D-06          ION ALPHA           
    0.1372D+06 -0.1802D+06  0.6554D+05  0.6554D+05          ION BETA            
   -0.372529029846D-08-0.133226762955D-13   503808     1822 DELTA-UTC: A0,A1,T,W
    16                                                      LEAP SECONDS        
                                                            END OF HEADER       
18 14 12  9 12  0  0.0 0.363908242434D-03 0.261479726760D-11 0.000000000000D+00
    0.630000000000D+02 0.268750000000D+01 0.586560146870D-08-0.832553857450D+00
    0.283122062683D-06 0.155142594594D-01 0.509619712830D-05 0.515373716736D+04
    0.216000000000D+06-0.819563865662D-07 0.210637753474D+01 0.318512320519D-06
    0.924996320895D+00 0.263843750000D+03-0.200088441422D+01-0.886858369782D-08
   -0.191793703263D-09 0.100000000000D+01 0.182200000000D+04 0.000000000000D+00
    0.200000000000D+01 0.000000000000D+00-0.111758708954D-07 0.630000000000D+02
    0.208818000000D+06 0.400000000000D+01 0.000000000000D+00 0.000000000000D+00
19 14 12  9 12  0  0.0-0.491688959301D-03-0.159161572810D-11 0.000000000000D+00
    0.580000000000D+02-0.100718750000D+03 0.414981571362D-08 0.312361868177D+01
   -0.525452196598D-05 0.107479018625D-01 0.950507819653D-05 0.515368112564D+04
    0.216000000000D+06-0.130385160446D-06 0.120910037348D+00-0.126659870148D-06
    0.968142285229D+00 0.200468750000D+03 0.513407164669D+00-0.764103256539D-08
   -0.357157734196D-11 0.100000000000D+01 0.182200000000D+04 0.000000000000D+00
    0.200000000000D+01 0.000000000000D+00-0.149011611938D-07 0.580000000000D+02
    0.208818000000D+06 0.400000000000D+01 0.000000000000D+00 0.000000000000D+00
20 14 12  9 12  0  0.0 0.265446957201D-03 0.409272615798D-11 0.000000000000D+00
    0.970000000000D+02 0.412500000000D+01 0.579881297241D-08-0.304318552204D+00
    0.219792127609D-06 0.629398389719D-02 0.477023422718D-05 0.515366676140D+04
    0.216000000000D+06-0.447034835815D-07 0.205349820442D+01 0.484287738800D-07
    0.926087926959D+00 0.268375000000D+03 0.133911295776D+01-0.874822154140D-08
   -0.113576159474D-09 0.100000000000D+01 0.182200000000D+04 0.000000000000D+00
    0.280000000000D+01 0.000000000000D+00-0.838190317154D-08 0.970000000000D+02
    0.208818000000D+06 0.400000000000D+01 0.000000000000D+00 0.000000000000D+00
21 14 12  9 12  0  0.0-0.399270094931D-03-0.204636307899D-11 0.000000000000D+00
    0.360000000000D+02 0.459375000000D+01 0.538058126566D-08 0.142318657012D+00
    0.486150383949D-06 0.218108656118D-01 0.907108187675D-05 0.515364665604D+04
    0.216000000000D+06-0.223517417908D-06 0.106184383984D+01 0.184401869774D-06
    0.932890223925D+00 0.193906250000D+03-0.197190936427D+01-0.869857661635D-08
    0.380015829185D-09 0.000000000000D+00 0.182200000000D+04 0.000000000000D+00
    0.200000000000D+01 0.000000000000D+00-0.116415321827D-07 0.360000000000D+02
    0.208800000000D+06 0.400000000000D+01 0.000000000000D+00 0.000000000000D+00
22 14 12  9 12  0  0.0 0.295031350106D-03 0.386535248253D-11 0.000000000000D+00
    0.950000000000D+02 0.656250000000D+00 0.574523931228D-08-0.134679728754D+01
   -0.111758708954D-07 0.731454847846D-02 0.494532287121D-05 0.515370450211D+04
    0.216000000000D+06 0.154599547386D-06 0.210788250732D+01 0.141561031342D-06
    0.922795708820D+00 0.263687500000D+03-0.206368189462D+01-0.859321508476D-08
   -0.196793911542D-09 0.000000000000D+00 0.182200000000D+04 0.000000000000D+00
    0.400000000000D+01 0.000000000000D+00-0.176951289177D-07 0.950000000000D+02
    0.210270000000D+06 0.400000000000D+01 0.000000000000D+00 0.000000000000D+00
23 14 12  9 12  0  0.0-0.732094049454D-04-0.272848410532D-11 0.000000000000D+00
    0.550000000000D+02 0.178437500000D+02 0.450625913235D-08 0.267533516307D+01
    0.804662704468D-06 0.969094934408D-02 0.101812183857D-04 0.515370045471D+04
    0.216000000000D+06-0.117346644402D-06-0.310785894179D+01-0.689178705216D-07
    0.950333794314D+00 0.177750000000D+03-0.271864589586D+01-0.779961059937D-08
   -0.454304637897D-09 0.100000000000D+01 0.182200000000D+04 0.000000000000D+00
    0.200000000000D+01 0.000000000000D+00-0.200234353542D-07 0.550000000000D+02
    0.209532000000D+06 0.400000000000D+01 0.000000000000D+00 0.000000000000D+00
24 14 12  9 12  0  0.0-0.397972762585D-04-0.682121026330D-12 0.000000000000D+00
    0.470000000000D+02 0.123531250000D+03 0.446732893933D-08 0.207458808788D+01
    0.635161995888D-05 0.265788228717D-02 0.715814530849D-05 0.515370326996D+04
    0.216000000000D+06-0.242143869400D-07-0.208114064864D+01 0.335276126862D-07
    0.955131973972D+00 0.235593750000D+03 0.213644325155D+00-0.815141096756D-08
    0.248224625266D-09 0.100000000000D+01 0.182200000000D+04 0.000000000000D+00
    0.280000000000D+01 0.000000000000D+00 0.279396772385D-08 0.470000000000D+02
    0.208818000000D+06 0.400000000000D+01 0.000000000000D+00 0.000000000000D+00
25 14 12  9 12  0  0.0 0.102533958852D-04-0.204636307899D-11 0.000000000000D+00
    0.150000000000D+02-0.193437500000D+02 0.448911556111D-08 0.699033460407D-02
   -0.102445483208D-05 0.385019974783D-02 0.151060521603D-05 0.515375436020D+04
    0.216000000000D+06-0.149011611938D-07-0.102138253938D+01 0.577419996262D-07
    0.977366407965D+00 0.361906250000D+03 0.680363835930D+00-0.837963475971D-08
    0.107147320259D-11 0.100000000000D+01 0.182200000000D+04 0.000000000000D+00
    0.200000000000D+01 0.000000000000D+00 0.512227416039D-08 0.150000000000D+02
    0.208818000000D+06 0.400000000000D+01 0.000000000000D+00 0.000000000000D+00
26 14 12  9 12  0  0.0-0.150957144797D-03-0.131876731757D-10 0.000000000000D+00
    0.500000000000D+01 0.343750000000D+02 0.380087260732D-08 0.267529836482D+01
    0.168755650520D-05 0.213777368190D-01 0.109709799290D-04 0.515368999290D+04
    0.216000000000D+06 0.217929482460D-06-0.301526970378D+01-0.173225998878D-06
    0.973467557197D+00 0.169000000000D+03 0.129870596521D+01-0.724280169176D-08
   -0.478948521557D-09 0.100000000000D+01 0.182200000000D+04 0.000000000000D+00
    0.200000000000D+01 0.000000000000D+00-0.651925802231D-08 0.500000000000D+01
    0.208818000000D+06 0.400000000000D+01 0.000000000000D+00 0.000000000000D+00
27 14 12  9 12  0  0.0 0.357935205102D-04 0.272848410532D-11 0.000000000000D+00
    0.200000000000D+02-0.103531250000D+03 0.426874923911D-08-0.236677676998D+01
   -0.546127557754D-05 0.166401395109D-02 0.875256955624D-05 0.515368921471D+04
    0.216000000000D+06-0.465661287308D-07 0.240463355692D-01-0.726431608200D-07
    0.965898018215D+00 0.214343750000D+03 0.229009595123D+00-0.788425698238D-08
   -0.450018745087D-10 0.000000000000D+00 0.182200000000D+04 0.000000000000D+00
    0.200000000000D+01 0.000000000000D+00 0.139698386192D-08 0.200000000000D+02
    0.208800000000D+06 0.400000000000D+01 0.000000000000D+00 0.000000000000D+00
28 14 12  9 12  0  0.0 0.404067803174D-03 0.272848410532D-11 0.000000000000D+00
    0.920000000000D+02-0.354375000000D+02 0.416624496940D-08-0.153762600523D+01
   -0.129640102386D-05 0.197012348799D-01 0.165402889252D-05 0.515368232918D+04
    0.216000000000D+06 0.169500708580D-06-0.952506631427D+00 0.409781932831D-06
    0.987938380033D+00 0.359031250000D+03-0.169323321759D+01-0.808462247126D-08
   -0.171435712414D-10 0.100000000000D+01 0.182200000000D+04 0.000000000000D+00
    0.280000000000D+01 0.000000000000D+00-0.111758708954D-07 0.920000000000D+02
    0.208818000000D+06 0.400000000000D+01 0.000000000000D+00 0.000000000000D+00
29 14 12  9 12  0  0.0 0.578442588448D-03 0.238742359215D-11 0.000000000000D+00
    0.103000000000D+03-0.117468750000D+03 0.418053127876D-08 0.448580809991D+00
   -0.603124499321D-05 0.117873726413D-02 0.909157097340D-05 0.515359773636D+04
    0.216000000000D+06 0.279396772385D-07 0.799830476378D-01-0.242143869400D-07
    0.971857817733D+00 0.213281250000D+03-0.865809568078D+00-0.787032783075D-08
   -0.389301930274D-10 0.000000000000D+00 0.182200000000D+04 0.000000000000D+00
    0.200000000000D+01 0.000000000000D+00-0.977888703346D-08 0.103000000000D+03
    0.208800000000D+06 0.400000000000D+01 0.000000000000D+00 0.000000000000D+00
30 14 12  9 12  0  0.0-0.842534936964D-04-0.147792889038D-11 0.000000000000D+00
    0.350000000000D+02 0.113000000000D+03 0.446125725784D-08 0.979998632077D+00
    0.588595867157D-05 0.997235882096D-03 0.607036054134D-05 0.515363526154D+04
    0.216000000000D+06-0.186264514923D-08-0.199142554726D+01 0.894069671631D-07
    0.957476992154D+00 0.261156250000D+03-0.308402522528D+01-0.812355266429D-08
    0.272868508926D-09 0.100000000000D+01 0.182200000000D+04 0.000000000000D+00
    0.200000000000D+01 0.000000000000D+00 0.325962901115D-08 0.350000000000D+02
    0.208818000000D+06 0.400000000000D+01 0.000000000000D+00 0.000000000000D+00
31 14 12  9 12  0  0.0 0.327692832798D-03-0.682121026330D-12 0.000000000000D+00
    0.350000000000D+02 0.970312500000D+02 0.401230998596D-08 0.111738798223D+01
    0.512041151524D-05 0.827361096162D-02 0.665523111820D-05 0.515368698883D+04
    0.216000000000D+06 0.195577740669D-06-0.203614485365D+01-0.204890966415D-07
    0.976737091329D+00 0.255406250000D+03-0.603230737039D+00-0.788568561331D-08
    0.244295890190D-09 0.000000000000D+00 0.182200000000D+04 0.000000000000D+00
    0.200000000000D+01 0.000000000000D+00-0.135041773319D-07 0.350000000000D+02
    0.208800000000D+06 0.400000000000D+01 0.000000000000D+00 0.000000000000D+00
